1 28654U 05018A   25030.16946896  .00000398  00000-0  23471-3 0  9998
2 28654  98.8542 111.0717 0014961 137.5822 222.6509 14.13501465 15327